ONEWEB-0634             
1 56075U 23043AF  25282.46394328  .00000076  00000+0  16786-3 0  9996
2 56075  87.8987 309.2691 0002221  97.9974 262.1409 13.15546958123438
ONEWEB-0635             
1 56076U 23043AG  25282.53525235  .00000115  00000+0  27251-3 0  9991
2 56076  87.8972 309.2137 0001628  87.5364 272.5953 13.15548965123479
ONEWEB-0636             
1 56077U 23043AH  25282.52732175  .00000183  00000+0  45099-3 0  9999
2 56077  87.8979 309.2331 0001731  90.1045 270.0284 13.15547252123450
ONEWEB-0637             
1 56078U 23043AJ  25282.44491792  .00000091  00000+0  20756-3 0  9999
2 56078  87.8977 309.2632 0001983  85.6901 274.4455 13.15547917123469
ONEWEB-0647             
1 56079U 23043AK  25282.44017397  .00000083  00000+0  18540-3 0  9994
2 56079  87.8977 309.2775 0001707  96.2348 263.8977 13.15546100123458
ONEWEB-0561             
1 56710U 23068A   25282.59431131  .00000010  00000+0 -82491-5 0  9994
2 56710  87.9224 324.4284 0001392  92.4941 267.6351 13.20772856116429
